COSMOS_2559-707K
1 54031U 22130A   23124.44221494 -.00000044  00000+0  00000+0 0  9990
2 54031  64.7564 354.4866 0004589 227.7364 306.2728  2.13101009  4391
